[{"OBJECT_NAME":"IRIDIUM 106","OBJECT_ID":"2017-003A","EPOCH":"2026-03-05T16:45:54.046944","MEAN_MOTION":14.34219316,"ECCENTRICITY":0.00020235,"INCLINATION":86.3988,"RA_OF_ASC_NODE":131.8289,"ARG_OF_PERICENTER":105.4473,"MEAN_ANOMALY":254.6947,"EPHEMERIS_TYPE":0,"CLASSIFICATION_TYPE":"U","NORAD_CAT_ID":41917,"ELEMENT_SET_NO":999,"REV_AT_EPOCH":47837,"BSTAR":6.131213e-5,"MEAN_MOTION_DOT":1.91e-6,"MEAN_MOTION_DDOT":0},{"OBJECT_NAME":"IRIDIUM 103","OBJECT_ID":"2017-003B","EPOCH":"2026-03-05T16:27:38.230560","MEAN_MOTION":14.34218043,"ECCENTRICITY":0.00021508,"INCLINATION":86.3983,"RA_OF_ASC_NODE":131.7342,"ARG_OF_PERICENTER":86.5413,"MEAN_ANOMALY":273.6029,"EPHEMERIS_TYPE":0,"CLASSIFICATION_TYPE":"U","NORAD_CAT_ID":41918,"ELEMENT_SET_NO":999,"REV_AT_EPOCH":47839,"BSTAR":4.66951e-5,"MEAN_MOTION_DOT":1.51e-6,"MEAN_MOTION_DDOT":0},{"OBJECT_NAME":"IRIDIUM 109","OBJECT_ID":"2017-003C","EPOCH":"2026-03-05T16:36:46.236384","MEAN_MOTION":14.34217686,"ECCENTRICITY":0.00020722,"INCLINATION":86.3991,"RA_OF_ASC_NODE":131.7893,"ARG_OF_PERICENTER":95.6131,"MEAN_ANOMALY":264.5301,"EPHEMERIS_TYPE":0,"CLASSIFICATION_TYPE":"U","NORAD_CAT_ID":41919,"ELEMENT_SET_NO":999,"REV_AT_EPOCH":47836,"BSTAR":-4.366634e-6,"MEAN_MOTION_DOT":8.0e-8,"MEAN_MOTION_DDOT":0},{"OBJECT_NAME":"IRIDIUM 102","OBJECT_ID":"2017-003D","EPOCH":"2026-03-05T17:31:34.256640","MEAN_MOTION":14.34217769,"ECCENTRICITY":0.00022633,"INCLINATION":86.3986,"RA_OF_ASC_NODE":131.6994,"ARG_OF_PERICENTER":96.5123,"MEAN_ANOMALY":263.633,"EPHEMERIS_TYPE":0,"CLASSIFICATION_TYPE":"U","NORAD_CAT_ID":41920,"ELEMENT_SET_NO":999,"REV_AT_EPOCH":47845,"BSTAR":3.801859e-6,"MEAN_MOTION_DOT":3.0e-7,"MEAN_MOTION_DDOT":0},{"OBJECT_NAME":"IRIDIUM 105","OBJECT_ID":"2017-003E","EPOCH":"2026-03-05T15:02:32.553024","MEAN_MOTION":14.34399646,"ECCENTRICITY":0.00022601,"INCLINATION":86.3923,"RA_OF_ASC_NODE":100.1942,"ARG_OF_PERICENTER":92.6417,"MEAN_ANOMALY":267.5038,"EPHEMERIS_TYPE":0,"CLASSIFICATION_TYPE":"U","NORAD_CAT_ID":41921,"ELEMENT_SET_NO":999,"REV_AT_EPOCH":48029,"BSTAR":0.00011970483,"MEAN_MOTION_DOT":3.56e-6,"MEAN_MOTION_DDOT":0},{"OBJECT_NAME":"IRIDIUM 104","OBJECT_ID":"2017-003F","EPOCH":"2026-03-05T16:09:22.335552","MEAN_MOTION":14.34217387,"ECCENTRICITY":0.00023386,"INCLINATION":86.3988,"RA_OF_ASC_NODE":131.7642,"ARG_OF_PERICENTER":88.6718,"MEAN_ANOMALY":271.4745,"EPHEMERIS_TYPE":0,"CLASSIFICATION_TYPE":"U","NORAD_CAT_ID":41922,"ELEMENT_SET_NO":999,"REV_AT_EPOCH":47843,"BSTAR":3.792251e-5,"MEAN_MOTION_DOT":1.26e-6,"MEAN_MOTION_DDOT":0},{"OBJECT_NAME":"IRIDIUM 114","OBJECT_ID":"2017-003G","EPOCH":"2026-03-05T16:18:30.000960","MEAN_MOTION":14.34219826,"ECCENTRICITY":0.00021916,"INCLINATION":86.3986,"RA_OF_ASC_NODE":131.745,"ARG_OF_PERICENTER":89.7227,"MEAN_ANOMALY":270.422,"EPHEMERIS_TYPE":0,"CLASSIFICATION_TYPE":"U","NORAD_CAT_ID":41923,"ELEMENT_SET_NO":999,"REV_AT_EPOCH":47841,"BSTAR":8.1510858e-5,"MEAN_MOTION_DOT":2.48e-6,"MEAN_MOTION_DDOT":0},{"OBJECT_NAME":"IRIDIUM 108","OBJECT_ID":"2017-003H","EPOCH":"2026-03-05T15:18:46.233504","MEAN_MOTION":14.34220157,"ECCENTRICITY":0.00023277,"INCLINATION":86.3915,"RA_OF_ASC_NODE":100.0781,"ARG_OF_PERICENTER":96.7216,"MEAN_ANOMALY":263.4245,"EPHEMERIS_TYPE":0,"CLASSIFICATION_TYPE":"U","NORAD_CAT_ID":41924,"ELEMENT_SET_NO":999,"REV_AT_EPOCH":48026,"BSTAR":0.00012210039,"MEAN_MOTION_DOT":3.62e-6,"MEAN_MOTION_DDOT":0},{"OBJECT_NAME":"IRIDIUM 112","OBJECT_ID":"2017-003J","EPOCH":"2026-03-05T17:40:42.257280","MEAN_MOTION":14.34217764,"ECCENTRICITY":0.00022295,"INCLINATION":86.3985,"RA_OF_ASC_NODE":131.5678,"ARG_OF_PERICENTER":94.3711,"MEAN_ANOMALY":265.774,"EPHEMERIS_TYPE":0,"CLASSIFICATION_TYPE":"U","NORAD_CAT_ID":41925,"ELEMENT_SET_NO":999,"REV_AT_EPOCH":47844,"BSTAR":2.794294e-6,"MEAN_MOTION_DOT":2.8e-7,"MEAN_MOTION_DDOT":0},{"OBJECT_NAME":"IRIDIUM 111","OBJECT_ID":"2017-003K","EPOCH":"2026-03-05T15:41:58.267968","MEAN_MOTION":14.34217927,"ECCENTRICITY":0.00021528,"INCLINATION":86.3986,"RA_OF_ASC_NODE":131.671,"ARG_OF_PERICENTER":94.7718,"MEAN_ANOMALY":265.3724,"EPHEMERIS_TYPE":0,"CLASSIFICATION_TYPE":"U","NORAD_CAT_ID":41926,"ELEMENT_SET_NO":999,"REV_AT_EPOCH":47841,"BSTAR":1.7873853e-5,"MEAN_MOTION_DOT":7.0e-7,"MEAN_MOTION_DDOT":0},{"OBJECT_NAME":"IRIDIUM 113","OBJECT_ID":"2017-039A","EPOCH":"2026-03-05T21:54:59.158080","MEAN_MOTION":14.34217944,"ECCENTRICITY":0.00022364,"INCLINATION":86.4023,"RA_OF_ASC_NODE":5.3266,"ARG_OF_PERICENTER":81.7059,"MEAN_ANOMALY":278.439,"EPHEMERIS_TYPE":0,"CLASSIFICATION_TYPE":"U","NORAD_CAT_ID":42803,"ELEMENT_SET_NO":999,"REV_AT_EPOCH":45638,"BSTAR":7.948694e-6,"MEAN_MOTION_DOT":4.2e-7,"MEAN_MOTION_DDOT":0},{"OBJECT_NAME":"IRIDIUM 123","OBJECT_ID":"2017-039B","EPOCH":"2026-03-05T22:54:42.884064","MEAN_MOTION":14.34217703,"ECCENTRICITY":0.00020002,"INCLINATION":86.3968,"RA_OF_ASC_NODE":36.7648,"ARG_OF_PERICENTER":83.5142,"MEAN_ANOMALY":276.6281,"EPHEMERIS_TYPE":0,"CLASSIFICATION_TYPE":"U","NORAD_CAT_ID":42804,"ELEMENT_SET_NO":999,"REV_AT_EPOCH":45515,"BSTAR":1.3541016e-5,"MEAN_MOTION_DOT":5.8e-7,"MEAN_MOTION_DDOT":0},{"OBJECT_NAME":"IRIDIUM 120","OBJECT_ID":"2017-039C","EPOCH":"2026-03-05T21:45:51.138432","MEAN_MOTION":14.34218226,"ECCENTRICITY":0.00021238,"INCLINATION":86.4013,"RA_OF_ASC_NODE":5.1255,"ARG_OF_PERICENTER":89.9898,"MEAN_ANOMALY":270.1542,"EPHEMERIS_TYPE":0,"CLASSIFICATION_TYPE":"U","NORAD_CAT_ID":42805,"ELEMENT_SET_NO":999,"REV_AT_EPOCH":45637,"BSTAR":0.00011211356,"MEAN_MOTION_DOT":3.34e-6,"MEAN_MOTION_DDOT":0},{"OBJECT_NAME":"IRIDIUM 115","OBJECT_ID":"2017-039D","EPOCH":"2026-03-05T21:14:19.667904","MEAN_MOTION":14.43276664,"ECCENTRICITY":0.00017987,"INCLINATION":86.4551,"RA_OF_ASC_NODE":5.2491,"ARG_OF_PERICENTER":85.2052,"MEAN_ANOMALY":274.9355,"EPHEMERIS_TYPE":0,"CLASSIFICATION_TYPE":"U","NORAD_CAT_ID":42806,"ELEMENT_SET_NO":999,"REV_AT_EPOCH":45936,"BSTAR":0.000107218,"MEAN_MOTION_DOT":3.81e-6,"MEAN_MOTION_DDOT":0},{"OBJECT_NAME":"IRIDIUM 118","OBJECT_ID":"2017-039E","EPOCH":"2026-03-05T23:40:22.834560","MEAN_MOTION":14.34217757,"ECCENTRICITY":0.00022618,"INCLINATION":86.397,"RA_OF_ASC_NODE":36.7505,"ARG_OF_PERICENTER":84.9868,"MEAN_ANOMALY":275.1586,"EPHEMERIS_TYPE":0,"CLASSIFICATION_TYPE":"U","NORAD_CAT_ID":42807,"ELEMENT_SET_NO":999,"REV_AT_EPOCH":45515,"BSTAR":2.379267e-5,"MEAN_MOTION_DOT":8.6e-7,"MEAN_MOTION_DDOT":0},{"OBJECT_NAME":"IRIDIUM 117","OBJECT_ID":"2017-039F","EPOCH":"2026-03-05T22:27:18.850176","MEAN_MOTION":14.34217506,"ECCENTRICITY":0.00018933,"INCLINATION":86.3964,"RA_OF_ASC_NODE":36.7307,"ARG_OF_PERICENTER":83.1579,"MEAN_ANOMALY":276.9832,"EPHEMERIS_TYPE":0,"CLASSIFICATION_TYPE":"U","NORAD_CAT_ID":42808,"ELEMENT_SET_NO":999,"REV_AT_EPOCH":45517,"BSTAR":-1.004245e-5,"MEAN_MOTION_DOT":-8.0e-8,"MEAN_MOTION_DDOT":0},{"OBJECT_NAME":"IRIDIUM 126","OBJECT_ID":"2017-039G","EPOCH":"2026-03-05T21:23:22.920000","MEAN_MOTION":14.34217417,"ECCENTRICITY":0.00020565,"INCLINATION":86.3962,"RA_OF_ASC_NODE":36.7985,"ARG_OF_PERICENTER":82.3743,"MEAN_ANOMALY":277.7686,"EPHEMERIS_TYPE":0,"CLASSIFICATION_TYPE":"U","NORAD_CAT_ID":42809,"ELEMENT_SET_NO":999,"REV_AT_EPOCH":45514,"BSTAR":-1.0641619e-5,"MEAN_MOTION_DOT":-1.0e-7,"MEAN_MOTION_DDOT":0}]
