IRIDIUM 106             
1 41917U 17003A   26064.69854221  .00000191  00000+0  61312-4 0  9995
2 41917  86.3988 131.8289 0002023 105.4473 254.6947 14.34219316478379
IRIDIUM 103             
1 41918U 17003B   26064.68585915  .00000151  00000+0  46695-4 0  9999
2 41918  86.3983 131.7342 0002150  86.5413 273.6029 14.34218043478398
IRIDIUM 109             
1 41919U 17003C   26064.69220181  .00000008  00000+0 -43666-5 0  9990
2 41919  86.3991 131.7893 0002072  95.6131 264.5301 14.34217686478361
IRIDIUM 102             
1 41920U 17003D   26064.73025760  .00000030  00000+0  38019-5 0  9993
2 41920  86.3986 131.6994 0002263  96.5123 263.6330 14.34217769478455
IRIDIUM 105             
1 41921U 17003E   26064.62676566  .00000356  00000+0  11970-3 0  9994
2 41921  86.3923 100.1942 0002260  92.6417 267.5038 14.34399646480299
IRIDIUM 104             
1 41922U 17003F   26064.67317518  .00000126  00000+0  37923-4 0  9991
2 41922  86.3988 131.7642 0002338  88.6718 271.4745 14.34217387478436
IRIDIUM 114             
1 41923U 17003G   26064.67951390  .00000248  00000+0  81511-4 0  9991
2 41923  86.3986 131.7450 0002191  89.7227 270.4220 14.34219826478411
IRIDIUM 108             
1 41924U 17003H   26064.63803511  .00000362  00000+0  12210-3 0  9995
2 41924  86.3915 100.0781 0002327  96.7216 263.4245 14.34220157480261
IRIDIUM 112             
1 41925U 17003J   26064.73660020  .00000028  00000+0  27943-5 0  9993
2 41925  86.3985 131.5678 0002229  94.3711 265.7740 14.34217764478440
IRIDIUM 111             
1 41926U 17003K   26064.65414662  .00000070  00000+0  17874-4 0  9992
2 41926  86.3986 131.6710 0002152  94.7718 265.3724 14.34217927478412
IRIDIUM 113             
1 42803U 17039A   26064.91318470  .00000042  00000+0  79487-5 0  9993
2 42803  86.4023   5.3266 0002236  81.7059 278.4390 14.34217944456385
IRIDIUM 123             
1 42804U 17039B   26064.95466301  .00000058  00000+0  13541-4 0  9990
2 42804  86.3968  36.7648 0002000  83.5142 276.6281 14.34217703455153
IRIDIUM 120             
1 42805U 17039C   26064.90684188  .00000334  00000+0  11211-3 0  9999
2 42805  86.4013   5.1255 0002123  89.9898 270.1542 14.34218226456379
IRIDIUM 115             
1 42806U 17039D   26064.88494986  .00000381  00000+0  10722-3 0  9990
2 42806  86.4551   5.2491 0001798  85.2052 274.9355 14.43276664459364
IRIDIUM 118             
1 42807U 17039E   26064.98637540  .00000086  00000+0  23793-4 0  9992
2 42807  86.3970  36.7505 0002261  84.9868 275.1586 14.34217757455151
IRIDIUM 117             
1 42808U 17039F   26064.93563484 -.00000008  00000+0 -10042-4 0  9992
2 42808  86.3964  36.7307 0001893  83.1579 276.9832 14.34217506455172
IRIDIUM 126             
1 42809U 17039G   26064.89123750 -.00000010  00000+0 -10642-4 0  9995
2 42809  86.3962  36.7985 0002056  82.3743 277.7686 14.34217417455143
